{"type": "FeatureCollection", "features": [ {"type": "Feature", "properties": {"norad_id": 17070, "name": "POLAR BEAR", "group": "nnss", "lat": -76.05640200931408, "lon": 5.067390160857886, "alt_km": 1015.6582454399841, "timestamp": "2025-12-18T23:35:49.328755+00:00", "meta": {"OBJECT_NAME": "POLAR BEAR", "OBJECT_ID": "1986-088A", "EPOCH": "2025-12-18T13:55:03.174240", "MEAN_MOTION": 13.75251999, "ECCENTRICITY": 0.00412315, "INCLINATION": 89.617, "RA_OF_ASC_NODE": 183.5399, "ARG_OF_PERICENTER": 102.4211, "MEAN_ANOMALY": 317.865, "EPHEMERIS_TYPE": 0, "CLASSIFICATION_TYPE": "U", "NORAD_CAT_ID": 17070, "ELEMENT_SET_NO": 999, "REV_AT_EPOCH": 96059, "BSTAR": 0.00010445726, "MEAN_MOTION_DOT": 1.12e-06, "MEAN_MOTION_DDOT": 0}, "tle": {"line1": "1 17070U 86088A   25352.57989785  .00000112  00000+0  10446-3 0  9991", "line2": "2 17070  89.6170 183.5399 0041231 102.4211 317.8650 13.75251999960598"}}, "geometry": {"type": "Point", "coordinates": [5.067390160857886, -76.05640200931408]}}, {"type": "Feature", "properties": {"norad_id": 18361, "name": "OSCAR 27", "group": "nnss", "lat": -12.030657979581024, "lon": -100.5739147445228, "alt_km": 1020.4146719183236, "timestamp": "2025-12-18T23:35:49.328766+00:00", "meta": {"OBJECT_NAME": "OSCAR 27", "OBJECT_ID": "1987-080A", "EPOCH": "2025-12-18T11:55:41.651040", "MEAN_MOTION": 13.44907851, "ECCENTRICITY": 0.01033686, "INCLINATION": 90.3742, "RA_OF_ASC_NODE": 79.4877, "ARG_OF_PERICENTER": 207.1802, "MEAN_ANOMALY": 152.3914, "EPHEMERIS_TYPE": 0, "CLASSIFICATION_TYPE": "U", "NORAD_CAT_ID": 18361, "ELEMENT_SET_NO": 999, "REV_AT_EPOCH": 87634, "BSTAR": 0.00014659312, "MEAN_MOTION_DOT": 9.7e-07, "MEAN_MOTION_DDOT": 0}, "tle": {"line1": "1 18361U 87080A   25352.49700985  .00000097  00000+0  14659-3 0  9994", "line2": "2 18361  90.3742  79.4877 0103368 207.1802 152.3914 13.44907851876344"}}, "geometry": {"type": "Point", "coordinates": [-100.5739147445228, -12.030657979581024]}}, {"type": "Feature", "properties": {"norad_id": 18362, "name": "OSCAR 29", "group": "nnss", "lat": -13.525574618592078, "lon": -100.1250797603437, "alt_km": 1033.715105806251, "timestamp": "2025-12-18T23:35:49.328776+00:00", "meta": {"OBJECT_NAME": "OSCAR 29", "OBJECT_ID": "1987-080B", "EPOCH": "2025-12-18T11:58:15.817152", "MEAN_MOTION": 13.44449408, "ECCENTRICITY": 0.01042531, "INCLINATION": 90.3753, "RA_OF_ASC_NODE": 79.9471, "ARG_OF_PERICENTER": 230.4547, "MEAN_ANOMALY": 140.4549, "EPHEMERIS_TYPE": 0, "CLASSIFICATION_TYPE": "U", "NORAD_CAT_ID": 18362, "ELEMENT_SET_NO": 999, "REV_AT_EPOCH": 87587, "BSTAR": 0.00013027596, "MEAN_MOTION_DOT": 8.6e-07, "MEAN_MOTION_DDOT": 0}, "tle": {"line1": "1 18362U 87080B   25352.49879418  .00000086  00000+0  13028-3 0  9990", "line2": "2 18362  90.3753  79.9471 0104253 230.4547 140.4549 13.44449408875879"}}, "geometry": {"type": "Point", "coordinates": [-100.1250797603437, -13.525574618592078]}}, {"type": "Feature", "properties": {"norad_id": 19070, "name": "OSCAR 23", "group": "nnss", "lat": -43.634218472647156, "lon": 16.892143158905064, "alt_km": 1289.8155187126276, "timestamp": "2025-12-18T23:35:49.328787+00:00", "meta": {"OBJECT_NAME": "OSCAR 23", "OBJECT_ID": "1988-033A", "EPOCH": "2025-12-18T13:48:21.612960", "MEAN_MOTION": 13.27788153, "ECCENTRICITY": 0.01900114, "INCLINATION": 90.3207, "RA_OF_ASC_NODE": 16.5735, "ARG_OF_PERICENTER": 163.7148, "MEAN_ANOMALY": 2.8387, "EPHEMERIS_TYPE": 0, "CLASSIFICATION_TYPE": "U", "NORAD_CAT_ID": 19070, "ELEMENT_SET_NO": 999, "REV_AT_EPOCH": 82330, "BSTAR": 0.00020120685, "MEAN_MOTION_DOT": 1.09e-06, "MEAN_MOTION_DDOT": 0}, "tle": {"line1": "1 19070U 88033A   25352.57525015  .00000109  00000+0  20121-3 0  9994", "line2": "2 19070  90.3207  16.5735 0190011 163.7148   2.8387 13.27788153823308"}}, "geometry": {"type": "Point", "coordinates": [16.892143158905064, -43.634218472647156]}}, {"type": "Feature", "properties": {"norad_id": 19071, "name": "OSCAR 32", "group": "nnss", "lat": 67.35884459215765, "lon": 15.948146528319338, "alt_km": 1125.7910142574465, "timestamp": "2025-12-18T23:35:49.328798+00:00", "meta": {"OBJECT_NAME": "OSCAR 32", "OBJECT_ID": "1988-033B", "EPOCH": "2025-12-18T14:46:20.663616", "MEAN_MOTION": 13.27954918, "ECCENTRICITY": 0.01887993, "INCLINATION": 90.3211, "RA_OF_ASC_NODE": 16.707, "ARG_OF_PERICENTER": 150.5041, "MEAN_ANOMALY": 322.2522, "EPHEMERIS_TYPE": 0, "CLASSIFICATION_TYPE": "U", "NORAD_CAT_ID": 19071, "ELEMENT_SET_NO": 999, "REV_AT_EPOCH": 82343, "BSTAR": 0.00018389455, "MEAN_MOTION_DOT": 1.01e-06, "MEAN_MOTION_DDOT": 0}, "tle": {"line1": "1 19071U 88033B   25352.61551694  .00000101  00000+0  18389-3 0  9997", "line2": "2 19071  90.3211  16.7070 0188799 150.5041 322.2522 13.27954918823432"}}, "geometry": {"type": "Point", "coordinates": [15.948146528319338, 67.35884459215765]}}, {"type": "Feature", "properties": {"norad_id": 19223, "name": "NOVA 2", "group": "nnss", "lat": 25.616264222902487, "lon": -101.74138896051413, "alt_km": 1193.1723733079998, "timestamp": "2025-12-18T23:35:49.328808+00:00", "meta": {"OBJECT_NAME": "NOVA 2", "OBJECT_ID": "1988-052A", "EPOCH": "2025-12-18T11:58:58.766592", "MEAN_MOTION": 13.22936382, "ECCENTRICITY": 0.00300961, "INCLINATION": 89.9871, "RA_OF_ASC_NODE": 78.2654, "ARG_OF_PERICENTER": 1.0764, "MEAN_ANOMALY": 9.6987, "EPHEMERIS_TYPE": 0, "CLASSIFICATION_TYPE": "U", "NORAD_CAT_ID": 19223, "ELEMENT_SET_NO": 999, "REV_AT_EPOCH": 81024, "BSTAR": 0.00014535403, "MEAN_MOTION_DOT": 7e-07, "MEAN_MOTION_DDOT": 0}, "tle": {"line1": "1 19223U 88052A   25352.49929128  .00000070  00000+0  14535-3 0  9998", "line2": "2 19223  89.9871  78.2654 0030096   1.0764   9.6987 13.22936382810242"}}, "geometry": {"type": "Point", "coordinates": [-101.74138896051413, 25.616264222902487]}}, {"type": "Feature", "properties": {"norad_id": 19419, "name": "OSCAR 25", "group": "nnss", "lat": -46.767097283443455, "lon": 20.301069551744916, "alt_km": 1100.1801595886636, "timestamp": "2025-12-18T23:35:49.328827+00:00", "meta": {"OBJECT_NAME": "OSCAR 25", "OBJECT_ID": "1988-074A", "EPOCH": "2025-12-18T13:56:01.747392", "MEAN_MOTION": 13.42624451, "ECCENTRICITY": 0.0094746, "INCLINATION": 90.0342, "RA_OF_ASC_NODE": 20.2633, "ARG_OF_PERICENTER": 228.9225, "MEAN_ANOMALY": 298.3513, "EPHEMERIS_TYPE": 0, "CLASSIFICATION_TYPE": "U", "NORAD_CAT_ID": 19419, "ELEMENT_SET_NO": 999, "REV_AT_EPOCH": 82718, "BSTAR": 0.00017289494, "MEAN_MOTION_DOT": 1.09e-06, "MEAN_MOTION_DDOT": 0}, "tle": {"line1": "1 19419U 88074A   25352.58057578  .00000109  00000+0  17289-3 0  9992", "line2": "2 19419  90.0342  20.2633 0094746 228.9225 298.3513 13.42624451827189"}}, "geometry": {"type": "Point", "coordinates": [20.301069551744916, -46.767097283443455]}}, {"type": "Feature", "properties": {"norad_id": 19420, "name": "OSCAR 31", "group": "nnss", "lat": -14.76428976282642, "lon": -159.393812312402, "alt_km": 1042.2864269767606, "timestamp": "2025-12-18T23:35:49.328849+00:00", "meta": {"OBJECT_NAME": "OSCAR 31", "OBJECT_ID": "1988-074B", "EPOCH": "2025-12-18T14:16:50.218752", "MEAN_MOTION": 13.42585594, "ECCENTRICITY": 0.00931008, "INCLINATION": 90.0356, "RA_OF_ASC_NODE": 20.6142, "ARG_OF_PERICENTER": 223.0134, "MEAN_ANOMALY": 257.0166, "EPHEMERIS_TYPE": 0, "CLASSIFICATION_TYPE": "U", "NORAD_CAT_ID": 19420, "ELEMENT_SET_NO": 999, "REV_AT_EPOCH": 82729, "BSTAR": 0.0001474358, "MEAN_MOTION_DOT": 9.4e-07, "MEAN_MOTION_DDOT": 0}, "tle": {"line1": "1 19420U 88074B   25352.59502568  .00000094  00000+0  14744-3 0  9995", "line2": "2 19420  90.0356  20.6142 0093100 223.0134 257.0166 13.42585594827295"}}, "geometry": {"type": "Point", "coordinates": [-159.393812312402, -14.76428976282642]}}]}